{"type": "FeatureCollection", "features": [ {"type": "Feature", "properties": {"norad_id": 42969, "name": "SENTINEL-5P", "group": "resource", "lat": 57.54530887138917, "lon": -89.60818444174679, "alt_km": 820.8045141341472, "timestamp": "2025-12-11T20:41:14.744774+00:00", "meta": {"OBJECT_NAME": "SENTINEL-5P", "OBJECT_ID": "2017-064A", "EPOCH": "2025-12-11T13:38:44.048832", "MEAN_MOTION": 14.19517073, "ECCENTRICITY": 9.627e-05, "INCLINATION": 98.7784, "RA_OF_ASC_NODE": 284.1631, "ARG_OF_PERICENTER": 88.2794, "MEAN_ANOMALY": 271.8492, "EPHEMERIS_TYPE": 0, "CLASSIFICATION_TYPE": "U", "NORAD_CAT_ID": 42969, "ELEMENT_SET_NO": 999, "REV_AT_EPOCH": 42294, "BSTAR": 9.9015128e-05, "MEAN_MOTION_DOT": 1.64e-06, "MEAN_MOTION_DDOT": 0}, "tle": {"line1": "1 42969U 17064A   25345.56856538  .00000164  00000+0  99015-4 0  9991", "line2": "2 42969  98.7784 284.1631 0000962  88.2794 271.8492 14.19517073422947"}}, "geometry": {"type": "Point", "coordinates": [-89.60818444174679, 57.54530887138917]}}, {"type": "Feature", "properties": {"norad_id": 42987, "name": "SKYSAT-C11", "group": "resource", "lat": 50.516322782110166, "lon": -47.57435901468169, "alt_km": 419.1942086420677, "timestamp": "2025-12-11T20:41:14.744784+00:00", "meta": {"OBJECT_NAME": "SKYSAT-C11", "OBJECT_ID": "2017-068A", "EPOCH": "2025-12-11T15:28:35.739840", "MEAN_MOTION": 15.47373531, "ECCENTRICITY": 9.904e-05, "INCLINATION": 97.4141, "RA_OF_ASC_NODE": 123.1088, "ARG_OF_PERICENTER": 104.2746, "MEAN_ANOMALY": 255.8614, "EPHEMERIS_TYPE": 0, "CLASSIFICATION_TYPE": "U", "NORAD_CAT_ID": 42987, "ELEMENT_SET_NO": 999, "REV_AT_EPOCH": 45414, "BSTAR": 0.00058739884, "MEAN_MOTION_DOT": 0.00030019, "MEAN_MOTION_DDOT": 0}, "tle": {"line1": "1 42987U 17068A   25345.64485810  .00030019  00000+0  58740-3 0  9996", "line2": "2 42987  97.4141 123.1088 0000990 104.2746 255.8614 15.47373531454141"}}, "geometry": {"type": "Point", "coordinates": [-47.57435901468169, 50.516322782110166]}}, {"type": "Feature", "properties": {"norad_id": 42988, "name": "SKYSAT-C10", "group": "resource", "lat": -75.81335848575954, "lon": -94.34967260774332, "alt_km": 480.3279424202983, "timestamp": "2025-12-11T20:41:14.744799+00:00", "meta": {"OBJECT_NAME": "SKYSAT-C10", "OBJECT_ID": "2017-068B", "EPOCH": "2025-12-11T14:51:46.376064", "MEAN_MOTION": 15.32023223, "ECCENTRICITY": 0.00053334, "INCLINATION": 97.4256, "RA_OF_ASC_NODE": 116.467, "ARG_OF_PERICENTER": 106.5329, "MEAN_ANOMALY": 253.6499, "EPHEMERIS_TYPE": 0, "CLASSIFICATION_TYPE": "U", "NORAD_CAT_ID": 42988, "ELEMENT_SET_NO": 999, "REV_AT_EPOCH": 45362, "BSTAR": 0.00052962987, "MEAN_MOTION_DOT": 0.0001632, "MEAN_MOTION_DDOT": 0}, "tle": {"line1": "1 42988U 17068B   25345.61928676  .00016320  00000+0  52963-3 0  9996", "line2": "2 42988  97.4256 116.4670 0005333 106.5329 253.6499 15.32023223453622"}}, "geometry": {"type": "Point", "coordinates": [-94.34967260774332, -75.81335848575954]}}, {"type": "Feature", "properties": {"norad_id": 42989, "name": "SKYSAT-C9", "group": "resource", "lat": 82.06782093732575, "lon": 5.364692094626325, "alt_km": 443.1972537980928, "timestamp": "2025-12-11T20:41:14.744809+00:00", "meta": {"OBJECT_NAME": "SKYSAT-C9", "OBJECT_ID": "2017-068C", "EPOCH": "2025-12-11T15:35:41.952768", "MEAN_MOTION": 15.36003973, "ECCENTRICITY": 0.00106351, "INCLINATION": 97.4187, "RA_OF_ASC_NODE": 115.8948, "ARG_OF_PERICENTER": 91.1579, "MEAN_ANOMALY": 269.0883, "EPHEMERIS_TYPE": 0, "CLASSIFICATION_TYPE": "U", "NORAD_CAT_ID": 42989, "ELEMENT_SET_NO": 999, "REV_AT_EPOCH": 45391, "BSTAR": 0.00055729126, "MEAN_MOTION_DOT": 0.00019517, "MEAN_MOTION_DDOT": 0}, "tle": {"line1": "1 42989U 17068C   25345.64979112  .00019517  00000+0  55729-3 0  9995", "line2": "2 42989  97.4187 115.8948 0010635  91.1579 269.0883 15.36003973453918"}}, "geometry": {"type": "Point", "coordinates": [5.364692094626325, 82.06782093732575]}}, {"type": "Feature", "properties": {"norad_id": 42990, "name": "SKYSAT-C8", "group": "resource", "lat": 71.93256754277392, "lon": 92.28530474118229, "alt_km": 460.06584086514613, "timestamp": "2025-12-11T20:41:14.744819+00:00", "meta": {"OBJECT_NAME": "SKYSAT-C8", "OBJECT_ID": "2017-068D", "EPOCH": "2025-12-11T07:50:04.560288", "MEAN_MOTION": 15.32872808, "ECCENTRICITY": 0.00016765, "INCLINATION": 97.4277, "RA_OF_ASC_NODE": 115.3205, "ARG_OF_PERICENTER": 355.9202, "MEAN_ANOMALY": 4.2026, "EPHEMERIS_TYPE": 0, "CLASSIFICATION_TYPE": "U", "NORAD_CAT_ID": 42990, "ELEMENT_SET_NO": 999, "REV_AT_EPOCH": 45349, "BSTAR": 0.00064852075, "MEAN_MOTION_DOT": 0.00020544, "MEAN_MOTION_DDOT": 0}, "tle": {"line1": "1 42990U 17068D   25345.32644167  .00020544  00000+0  64852-3 0  9990", "line2": "2 42990  97.4277 115.3205 0001676 355.9202   4.2026 15.32872808453498"}}, "geometry": {"type": "Point", "coordinates": [92.28530474118229, 71.93256754277392]}}, {"type": "Feature", "properties": {"norad_id": 42991, "name": "SKYSAT-C7", "group": "resource", "lat": -68.08417144772513, "lon": 135.8231494825317, "alt_km": 479.5610437307696, "timestamp": "2025-12-11T20:41:14.744830+00:00", "meta": {"OBJECT_NAME": "SKYSAT-C7", "OBJECT_ID": "2017-068E", "EPOCH": "2025-12-11T14:43:13.522080", "MEAN_MOTION": 15.32284983, "ECCENTRICITY": 0.00077056, "INCLINATION": 97.4283, "RA_OF_ASC_NODE": 116.6506, "ARG_OF_PERICENTER": 60.3877, "MEAN_ANOMALY": 299.8132, "EPHEMERIS_TYPE": 0, "CLASSIFICATION_TYPE": "U", "NORAD_CAT_ID": 42991, "ELEMENT_SET_NO": 999, "REV_AT_EPOCH": 45360, "BSTAR": 0.00052497046, "MEAN_MOTION_DOT": 0.00016317, "MEAN_MOTION_DDOT": 0}, "tle": {"line1": "1 42991U 17068E   25345.61335095  .00016317  00000+0  52497-3 0  9995", "line2": "2 42991  97.4283 116.6506 0007705  60.3877 299.8132 15.32284983453602"}}, "geometry": {"type": "Point", "coordinates": [135.8231494825317, -68.08417144772513]}}, {"type": "Feature", "properties": {"norad_id": 42992, "name": "SKYSAT-C6", "group": "resource", "lat": 49.678674738011736, "lon": 108.4916531134975, "alt_km": 464.0234540914298, "timestamp": "2025-12-11T20:41:14.744840+00:00", "meta": {"OBJECT_NAME": "SKYSAT-C6", "OBJECT_ID": "2017-068F", "EPOCH": "2025-12-11T07:55:25.172544", "MEAN_MOTION": 15.3144353, "ECCENTRICITY": 0.00052085, "INCLINATION": 97.4319, "RA_OF_ASC_NODE": 116.8061, "ARG_OF_PERICENTER": 86.3065, "MEAN_ANOMALY": 273.8772, "EPHEMERIS_TYPE": 0, "CLASSIFICATION_TYPE": "U", "NORAD_CAT_ID": 42992, "ELEMENT_SET_NO": 999, "REV_AT_EPOCH": 45354, "BSTAR": 0.00062792772, "MEAN_MOTION_DOT": 0.00019023, "MEAN_MOTION_DDOT": 0}, "tle": {"line1": "1 42992U 17068F   25345.33015246  .00019023  00000+0  62793-3 0  9995", "line2": "2 42992  97.4319 116.8061 0005208  86.3065 273.8772 15.31443530453543"}}, "geometry": {"type": "Point", "coordinates": [108.4916531134975, 49.678674738011736]}}, {"type": "Feature", "properties": {"norad_id": 43111, "name": "CARTOSAT-2F", "group": "resource", "lat": -15.292330517152621, "lon": -138.5319833055705, "alt_km": 512.5275330053628, "timestamp": "2025-12-11T20:41:14.744850+00:00", "meta": {"OBJECT_NAME": "CARTOSAT-2F", "OBJECT_ID": "2018-004A", "EPOCH": "2025-12-11T15:05:17.972736", "MEAN_MOTION": 15.19262234, "ECCENTRICITY": 9.329e-05, "INCLINATION": 97.4316, "RA_OF_ASC_NODE": 43.2838, "ARG_OF_PERICENTER": 140.9074, "MEAN_ANOMALY": 219.2228, "EPHEMERIS_TYPE": 0, "CLASSIFICATION_TYPE": "U", "NORAD_CAT_ID": 43111, "ELEMENT_SET_NO": 999, "REV_AT_EPOCH": 43885, "BSTAR": 0.00052222115, "MEAN_MOTION_DOT": 0.00010951, "MEAN_MOTION_DDOT": 0}, "tle": {"line1": "1 43111U 18004A   25345.62868024  .00010951  00000+0  52222-3 0  9999", "line2": "2 43111  97.4316  43.2838 0000932 140.9074 219.2228 15.19262234438858"}}, "geometry": {"type": "Point", "coordinates": [-138.5319833055705, -15.292330517152621]}}, {"type": "Feature", "properties": {"norad_id": 43259, "name": "GAOFEN-1 02", "group": "resource", "lat": 79.41525741699239, "lon": -86.86381820932384, "alt_km": 633.5813458508637, "timestamp": "2025-12-11T20:41:14.744860+00:00", "meta": {"OBJECT_NAME": "GAOFEN-1 02", "OBJECT_ID": "2018-031A", "EPOCH": "2025-12-11T15:22:15.282624", "MEAN_MOTION": 14.76475751, "ECCENTRICITY": 0.00015316, "INCLINATION": 98.0803, "RA_OF_ASC_NODE": 43.4292, "ARG_OF_PERICENTER": 214.2389, "MEAN_ANOMALY": 145.8722, "EPHEMERIS_TYPE": 0, "CLASSIFICATION_TYPE": "U", "NORAD_CAT_ID": 43259, "ELEMENT_SET_NO": 999, "REV_AT_EPOCH": 41502, "BSTAR": 0.00019623325, "MEAN_MOTION_DOT": 1.314e-05, "MEAN_MOTION_DDOT": 0}, "tle": {"line1": "1 43259U 18031A   25345.64045466  .00001314  00000+0  19623-3 0  9992", "line2": "2 43259  98.0803  43.4292 0001531 214.2389 145.8722 14.76475751415024"}}, "geometry": {"type": "Point", "coordinates": [-86.86381820932384, 79.41525741699239]}}, {"type": "Feature", "properties": {"norad_id": 43260, "name": "GAOFEN-1 03", "group": "resource", "lat": -31.74451162140999, "lon": -141.51438543797937, "alt_km": 647.2563802337572, "timestamp": "2025-12-11T20:41:14.744871+00:00", "meta": {"OBJECT_NAME": "GAOFEN-1 03", "OBJECT_ID": "2018-031B", "EPOCH": "2025-12-11T14:51:01.706400", "MEAN_MOTION": 14.76438819, "ECCENTRICITY": 0.00020311, "INCLINATION": 98.0798, "RA_OF_ASC_NODE": 43.2845, "ARG_OF_PERICENTER": 327.3363, "MEAN_ANOMALY": 32.772, "EPHEMERIS_TYPE": 0, "CLASSIFICATION_TYPE": "U", "NORAD_CAT_ID": 43260, "ELEMENT_SET_NO": 999, "REV_AT_EPOCH": 41501, "BSTAR": 0.00046891608, "MEAN_MOTION_DOT": 3.21e-05, "MEAN_MOTION_DDOT": 0}, "tle": {"line1": "1 43260U 18031B   25345.61876975  .00003210  00000+0  46892-3 0  9993", "line2": "2 43260  98.0798  43.2845 0002031 327.3363  32.7720 14.76438819415010"}}, "geometry": {"type": "Point", "coordinates": [-141.51438543797937, -31.74451162140999]}}]}